CTC2_L_00369001-01
1 10000U 22029SD  26075.70045139  .00000000  00000+0  00000-0 0  9994
2 10000  60.0000   0.0000 0000000   0.0000   0.0000 13.16009679    12
CTC2_L_00369001-02
1 10001U 25826F   26075.70045139  .00000000  00000+0  00000-0 0  9993
2 10001  60.0000   0.0000 0000000   0.0000  90.0000 13.16009679    12
CTC2_L_00369001-03
1 10002U 24344XE  26075.70045139  .00000000  00000+0  00000-0 0  9998
2 10002  60.0000   0.0000 0000000   0.0000 180.0000 13.16009679    13
CTC2_L_00369001-04
1 10003U 22004EC  26075.70045139  .00000000  00000+0  00000-0 0  9990
2 10003  60.0000   0.0000 0000000   0.0000 270.0000 13.16009679    14
CTC2_L_00369002-01
1 10004U 23996BC  26075.70045139  .00000000  00000+0  00000-0 0  9992
2 10004  60.0000  12.0000 0000000   0.0000  12.0000 13.16009679    12
CTC2_L_00369002-02
1 10005U 22110GQ  26075.70045139  .00000000  00000+0  00000-0 0  9990
2 10005  60.0000  12.0000 0000000   0.0000 102.0000 13.16009679    13
CTC2_L_00369002-03
1 10006U 24997BI  26075.70045139  .00000000  00000+0  00000-0 0  9996
2 10006  60.0000  12.0000 0000000   0.0000 192.0000 13.16009679    13
CTC2_L_00369002-04
1 10007U 24941FZ  26075.70045139  .00000000  00000+0  00000-0 0  9996
2 10007  60.0000  12.0000 0000000   0.0000 282.0000 13.16009679    14
CTC2_L_00369003-01
1 10008U 25986LR  26075.70045139  .00000000  00000+0  00000-0 0  9997
2 10008  60.0000  24.0000 0000000   0.0000  24.0000 13.16009679    12
CTC2_L_00369003-02
1 10009U 24074BL  26075.70045139  .00000000  00000+0  00000-0 0  9995
2 10009  60.0000  24.0000 0000000   0.0000 114.0000 13.16009679    13
CTC2_L_00369003-03
1 10010U 25627N   26075.70045139  .00000000  00000+0  00000-0 0  9992
2 10010  60.0000  24.0000 0000000   0.0000 204.0000 13.16009679    15
CTC2_L_00369003-04
1 10011U 26233TV  26075.70045139  .00000000  00000+0  00000-0 0  9997
2 10011  60.0000  24.0000 0000000   0.0000 294.0000 13.16009679    15
CTC2_L_00369004-01
1 10012U 24534EA  26075.70045139  .00000000  00000+0  00000-0 0  9990
2 10012  60.0000  36.0000 0000000   0.0000  36.0000 13.16009679    13
CTC2_L_00369004-02
1 10013U 26183QK  26075.70045139  .00000000  00000+0  00000-0 0  9993
2 10013  60.0000  36.0000 0000000   0.0000 126.0000 13.16009679    14
CTC2_L_00369004-03
1 10014U 22108AN  26075.70045139  .00000000  00000+0  00000-0 0  9997
2 10014  60.0000  36.0000 0000000   0.0000 216.0000 13.16009679    15
CTC2_L_00369004-04
1 10015U 23916YF  26075.70045139  .00000000  00000+0  00000-0 0  9996
2 10015  60.0000  36.0000 0000000   0.0000 306.0000 13.16009679    16
CTC2_L_00369005-01
1 10016U 22600GX  26075.70045139  .00000000  00000+0  00000-0 0  9996
2 10016  60.0000  48.0000 0000000   0.0000  48.0000 13.16009679    13
CTC2_L_00369005-02
1 10017U 22491CZ  26075.70045139  .00000000  00000+0  00000-0 0  9995
2 10017  60.0000  48.0000 0000000   0.0000 138.0000 13.16009679    14
CTC2_L_00369005-03
1 10018U 23844CQ  26075.70045139  .00000000  00000+0  00000-0 0  9999
2 10018  60.0000  48.0000 0000000   0.0000 228.0000 13.16009679    15
CTC2_L_00369005-04
1 10019U 22171FC  26075.70045139  .00000000  00000+0  00000-0 0  9992
2 10019  60.0000  48.0000 0000000   0.0000 318.0000 13.16009679    16
CTC2_L_00369006-01
1 10020U 24631OO  26075.70045139  .00000000  00000+0  00000-0 0  9997
2 10020  60.0000  60.0000 0000000   0.0000  60.0000 13.16009679    16
CTC2_L_00369006-02
1 10021U 24585CM  26075.70045139  .00000000  00000+0  00000-0 0  9996
2 10021  60.0000  60.0000 0000000   0.0000 150.0000 13.16009679    17
CTC2_L_00369006-03
1 10022U 26025CQ  26075.70045139  .00000000  00000+0  00000-0 0  9998
2 10022  60.0000  60.0000 0000000   0.0000 240.0000 13.16009679    18
CTC2_L_00369006-04
1 10023U 25810WF  26075.70045139  .00000000  00000+0  00000-0 0  9990
2 10023  60.0000  60.0000 0000000   0.0000 330.0000 13.16009679    19
CTC2_L_00369007-01
1 10024U 23693NX  26075.70045139  .00000000  00000+0  00000-0 0  9998
2 10024  60.0000  72.0000 0000000   0.0000  72.0000 13.16009679    16
CTC2_L_00369007-02
1 10025U 24752XO  26075.70045139  .00000000  00000+0  00000-0 0  9996
2 10025  60.0000  72.0000 0000000   0.0000 162.0000 13.16009679    17
CTC2_L_00369007-03
1 10026U 22744FN  26075.70045139  .00000000  00000+0  00000-0 0  9996
2 10026  60.0000  72.0000 0000000   0.0000 252.0000 13.16009679    18
CTC2_L_00369007-04
1 10027U 26377TW  26075.70045139  .00000000  00000+0  00000-0 0  9993
2 10027  60.0000  72.0000 0000000   0.0000 342.0000 13.16009679    19
CTC2_L_00369008-01
1 10028U 25472VI  26075.70045139  .00000000  00000+0  00000-0 0  9999
2 10028  60.0000  84.0000 0000000   0.0000  84.0000 13.16009679    16
CTC2_L_00369008-02
1 10029U 22095TM  26075.70045139  .00000000  00000+0  00000-0 0  9998
2 10029  60.0000  84.0000 0000000   0.0000 174.0000 13.16009679    17
CTC2_L_00369008-03
1 10030U 22165BG  26075.70045139  .00000000  00000+0  00000-0 0  9998
2 10030  60.0000  84.0000 0000000   0.0000 264.0000 13.16009679    19
CTC2_L_00369008-04
1 10031U 22900EK  26075.70045139  .00000000  00000+0  00000-0 0  9996
2 10031  60.0000  84.0000 0000000   0.0000 354.0000 13.16009679    10
CTC2_L_00369009-01
1 10032U 24339GU  26075.70045139  .00000000  00000+0  00000-0 0  9995
2 10032  60.0000  96.0000 0000000   0.0000  96.0000 13.16009679    17
CTC2_L_00369009-02
1 10033U 22382ZQ  26075.70045139  .00000000  00000+0  00000-0 0  9992
2 10033  60.0000  96.0000 0000000   0.0000 186.0000 13.16009679    18
CTC2_L_00369009-03
1 10034U 23223CJ  26075.70045139  .00000000  00000+0  00000-0 0  9998
2 10034  60.0000  96.0000 0000000   0.0000 276.0000 13.16009679    19
CTC2_L_00369009-04
1 10035U 22554IX  26075.70045139  .00000000  00000+0  00000-0 0  9995
2 10035  60.0000  96.0000 0000000   0.0000   6.0000 13.16009679    11
CTC2_L_00369010-01
1 10036U 25607GM  26075.70045139  .00000000  00000+0  00000-0 0  9998
2 10036  60.0000 108.0000 0000000   0.0000 108.0000 13.16009679    19
CTC2_L_00369010-02
1 10037U 25873TG  26075.70045139  .00000000  00000+0  00000-0 0  9994
2 10037  60.0000 108.0000 0000000   0.0000 198.0000 13.16009679    19
CTC2_L_00369010-03
1 10038U 23718CR  26075.70045139  .00000000  00000+0  00000-0 0  9991
2 10038  60.0000 108.0000 0000000   0.0000 288.0000 13.16009679    10
CTC2_L_00369010-04
1 10039U 26332SM  26075.70045139  .00000000  00000+0  00000-0 0  9997
2 10039  60.0000 108.0000 0000000   0.0000  18.0000 13.16009679    12
CTC2_L_00369011-01
1 10040U 23825YV  26075.70045139  .00000000  00000+0  00000-0 0  9993
2 10040  60.0000 120.0000 0000000   0.0000 120.0000 13.16009679    12
CTC2_L_00369011-02
1 10041U 22189RE  26075.70045139  .00000000  00000+0  00000-0 0  9996
2 10041  60.0000 120.0000 0000000   0.0000 210.0000 13.16009679    13
CTC2_L_00369011-03
1 10042U 25328DM  26075.70045139  .00000000  00000+0  00000-0 0  9995
2 10042  60.0000 120.0000 0000000   0.0000 300.0000 13.16009679    14
CTC2_L_00369011-04
1 10043U 24867UB  26075.70045139  .00000000  00000+0  00000-0 0  9993
2 10043  60.0000 120.0000 0000000   0.0000  30.0000 13.16009679    15
CTC2_L_00369012-01
1 10044U 23915WW  26075.70045139  .00000000  00000+0  00000-0 0  9997
2 10044  60.0000 132.0000 0000000   0.0000 132.0000 13.16009679    12
CTC2_L_00369012-02
1 10045U 23019AW  26075.70045139  .00000000  00000+0  00000-0 0  9993
2 10045  60.0000 132.0000 0000000   0.0000 222.0000 13.16009679    13
CTC2_L_00369012-03
1 10046U 25152SL  26075.70045139  .00000000  00000+0  00000-0 0  9994
2 10046  60.0000 132.0000 0000000   0.0000 312.0000 13.16009679    14
CTC2_L_00369012-04
1 10047U 25412BB  26075.70045139  .00000000  00000+0  00000-0 0  9994
2 10047  60.0000 132.0000 0000000   0.0000  42.0000 13.16009679    15
CTC2_L_00369013-01
1 10048U 25926Q   26075.70045139  .00000000  00000+0  00000-0 0  9995
2 10048  60.0000 144.0000 0000000   0.0000 144.0000 13.16009679    12
CTC2_L_00369013-02
1 10049U 23459QF  26075.70045139  .00000000  00000+0  00000-0 0  9995
2 10049  60.0000 144.0000 0000000   0.0000 234.0000 13.16009679    13
CTC2_L_00369013-03
1 10050U 24946MC  26075.70045139  .00000000  00000+0  00000-0 0  9999
2 10050  60.0000 144.0000 0000000   0.0000 324.0000 13.16009679    15
CTC2_L_00369013-04
1 10051U 25610P   26075.70045139  .00000000  00000+0  00000-0 0  9999
2 10051  60.0000 144.0000 0000000   0.0000  54.0000 13.16009679    16
CTC2_L_00369014-01
1 10052U 24327GZ  26075.70045139  .00000000  00000+0  00000-0 0  9994
2 10052  60.0000 156.0000 0000000   0.0000 156.0000 13.16009679    13
CTC2_L_00369014-02
1 10053U 25404AP  26075.70045139  .00000000  00000+0  00000-0 0  9992
2 10053  60.0000 156.0000 0000000   0.0000 246.0000 13.16009679    14
CTC2_L_00369014-03
1 10054U 22877II  26075.70045139  .00000000  00000+0  00000-0 0  9994
2 10054  60.0000 156.0000 0000000   0.0000 336.0000 13.16009679    15
CTC2_L_00369014-04
1 10055U 24460AH  26075.70045139  .00000000  00000+0  00000-0 0  9995
2 10055  60.0000 156.0000 0000000   0.0000  66.0000 13.16009679    16
CTC2_L_00369015-01
1 10056U 22204BT  26075.70045139  .00000000  00000+0  00000-0 0  9990
2 10056  60.0000 168.0000 0000000   0.0000 168.0000 13.16009679    13
CTC2_L_00369015-02
1 10057U 23939ZE  26075.70045139  .00000000  00000+0  00000-0 0  9997
2 10057  60.0000 168.0000 0000000   0.0000 258.0000 13.16009679    14
CTC2_L_00369015-03
1 10058U 25444TH  26075.70045139  .00000000  00000+0  00000-0 0  9991
2 10058  60.0000 168.0000 0000000   0.0000 348.0000 13.16009679    15
CTC2_L_00369015-04
1 10059U 22786KS  26075.70045139  .00000000  00000+0  00000-0 0  9998
2 10059  60.0000 168.0000 0000000   0.0000  78.0000 13.16009679    16
CTC2_L_00369016-01
1 10060U 23724DD  26075.70045139  .00000000  00000+0  00000-0 0  9993
2 10060  60.0000 180.0000 0000000   0.0000 180.0000 13.16009679    16
CTC2_L_00369016-02
1 10061U 23529HN  26075.70045139  .00000000  00000+0  00000-0 0  9997
2 10061  60.0000 180.0000 0000000   0.0000 270.0000 13.16009679    17
